0 FENGYUN 1C DEB
1 37452U 99025EHW 13281.50087692  .00003882  00000-0  14138-2 0  1350
2 37452 098.9944 019.6723 0063869 111.3718 249.4313 14.32602575265888
0 FENGYUN 1C DEB
1 37452U 99025EHW 13283.10725105  .00003985  00000-0  14504-2 0  1368
2 37452 098.9921 021.3401 0063957 105.0860 255.7246 14.32616476266119
0 FENGYUN 1C DEB
1 37452U 99025EHW 13284.50408387  .00004098  00000-0  14913-2 0  1374
2 37452 098.9900 022.7904 0063291 100.9049 259.9354 14.32629692266315
0 FENGYUN 1C DEB
1 37452U 99025EHW 13286.11041716  .00004233  00000-0  15391-2 0  1385
2 37452 098.9926 024.4556 0063497 097.0341 263.8124 14.32645269266546
0 FENGYUN 1C DEB
1 37452U 99025EHW 13287.08817998  .00004307  00000-0  15658-2 0  1394
2 37452 098.9928 025.4687 0063242 094.2169 266.6466 14.32655010266689
0 FENGYUN 1C DEB
1 37452U 99025EHW 13290.51026516  .00005490  00000-0  19779-2 0  1419
2 37452 098.9935 029.0274 0061003 086.5224 274.3400 14.32698369267171
0 FENGYUN 1C DEB
1 37452U 99025EHW 13290.51029772  .00004933  00000-0  17918-2 0  1409
2 37452 098.9884 029.0114 0061019 085.4536 275.5522 14.32695788267178
0 FENGYUN 1C DEB
1 37452U 99025EHW 13291.06896305  .00005175  00000-0  18778-2 0  1419
2 37452 098.9904 029.5927 0061629 084.4145 276.4256 14.32704171267250
0 FENGYUN 1C DEB
1 37452U 99025EHW 13293.09423168  .00005217  00000-0  18917-2 0  1420
2 37452 098.9899 031.6973 0062100 078.0734 282.7397 14.32726033267545
0 FENGYUN 1C DEB
1 37452U 99025EHW 13295.04963498  .00005386  00000-0  19501-2 0  1430
2 37452 098.9965 033.7448 0063078 073.1363 287.6955 14.32749172267822
